SL-3 R/B                
1 13403U 82079B   26013.13487021  .00004153  00000+0  16881-3 0  9994
2 13403  81.1462 258.6447 0025505 356.9349   3.1723 15.24018903369239
SL-14 R/B               
1 13553U 82092B   26013.18136022  .00000454  00000+0  48182-4 0  9992
2 13553  82.5669 193.3049 0021622 123.1228 295.3182 14.86592355320683
SL-3 R/B                
1 13819U 83010B   26013.14009012  .00009119  00000+0  19553-3 0  9998
2 13819  81.1036  70.2624 0016291 237.4739 122.4931 15.44443046349360
SL-3 R/B                
1 14208U 83075B   26013.11249603  .00008048  00000+0  22331-3 0  9999
2 14208  97.6117  15.6679 0024382  70.3352 290.0519 15.36896822321610
COSMOS 1536             
1 14699U 84013A   26013.15159117  .00005325  00000+0  22447-3 0  9993
2 14699  82.5458 163.0025 0015615 116.1674 244.1171 15.22990267264166
SL-14 R/B               
1 14820U 84027B   26013.07128372  .00000401  00000+0  43099-4 0  9991
2 14820  82.5432 297.1771 0018584 153.0953 207.1232 14.85913654239374
SL-8 R/B                
1 15483U 85006B   26013.13475352  .00000250  00000+0  91655-4 0  9998
2 15483  74.0463   3.3686 0019751 290.2869 140.7361 14.37744967146041
SL-12 R/B(2)            
1 15772U 85042D   26012.99007574  .00000044  00000+0  41129-4 0  9991
2 15772  71.1063 205.4009 0036501 215.2614 257.4649 14.21961888106471
SL-14 R/B               
1 15945U 85069B   26013.14028426  .00000359  00000+0  37869-4 0  9994
2 15945  82.5259  77.1818 0019284  21.0558 339.1448 14.86363703164581
SL-16 R/B               
1 16182U 85097B   26013.14170806  .00000022  00000+0  34905-4 0  9994
2 16182  71.0023 257.4952 0008566 325.9473 145.6986 14.16592315 79366
SL-14 R/B               
1 16496U 86006B   26013.06428615  .00000580  00000+0  58657-4 0  9997
2 16496  82.5287 312.0799 0078295  96.9139 264.0992 14.86719463140948
COSMOS 1743             
1 16719U 86034A   26012.77282098  .00029889  00000+0  45559-3 0  9995
2 16719  82.5350 132.3104 0005233 135.2748 224.8928 15.54307571171558
