CCSDS_OMM_VERS = 2.0
CREATION_DATE  = 
ORIGINATOR     = 

OBJECT_NAME    = SL-3 R/B
OBJECT_ID      = 1982-079B
CENTER_NAME    = EARTH
REF_FRAME      = TEME
TIME_SYSTEM    = UTC
MEAN_ELEMENT_THEORY = SGP/SGP4

EPOCH          = 2026-01-13T03:14:12.786144
MEAN_MOTION    = 15.24018903
ECCENTRICITY   = .0025505
INCLINATION    = 81.1462
RA_OF_ASC_NODE = 258.6447
ARG_OF_PERICENTER = 356.9349
MEAN_ANOMALY   = 3.1723

EPHEMERIS_TYPE = 0
CLASSIFICATION_TYPE = U
NORAD_CAT_ID   = 13403
ELEMENT_SET_NO = 999
REV_AT_EPOCH   = 36923
BSTAR          = .16881E-3
MEAN_MOTION_DOT = .4153E-4
MEAN_MOTION_DDOT = 0

CCSDS_OMM_VERS = 2.0
CREATION_DATE  = 
ORIGINATOR     = 

OBJECT_NAME    = SL-14 R/B
OBJECT_ID      = 1982-092B
CENTER_NAME    = EARTH
REF_FRAME      = TEME
TIME_SYSTEM    = UTC
MEAN_ELEMENT_THEORY = SGP/SGP4

EPOCH          = 2026-01-13T04:21:09.523008
MEAN_MOTION    = 14.86592355
ECCENTRICITY   = .0021622
INCLINATION    = 82.5669
RA_OF_ASC_NODE = 193.3049
ARG_OF_PERICENTER = 123.1228
MEAN_ANOMALY   = 295.3182

EPHEMERIS_TYPE = 0
CLASSIFICATION_TYPE = U
NORAD_CAT_ID   = 13553
ELEMENT_SET_NO = 999
REV_AT_EPOCH   = 32068
BSTAR          = .48182E-4
MEAN_MOTION_DOT = .454E-5
MEAN_MOTION_DDOT = 0

CCSDS_OMM_VERS = 2.0
CREATION_DATE  = 
ORIGINATOR     = 

OBJECT_NAME    = SL-3 R/B
OBJECT_ID      = 1983-010B
CENTER_NAME    = EARTH
REF_FRAME      = TEME
TIME_SYSTEM    = UTC
MEAN_ELEMENT_THEORY = SGP/SGP4

EPOCH          = 2026-01-13T03:21:43.786368
MEAN_MOTION    = 15.44443046
ECCENTRICITY   = .0016291
INCLINATION    = 81.1036
RA_OF_ASC_NODE = 70.2624
ARG_OF_PERICENTER = 237.4739
MEAN_ANOMALY   = 122.4931

EPHEMERIS_TYPE = 0
CLASSIFICATION_TYPE = U
NORAD_CAT_ID   = 13819
ELEMENT_SET_NO = 999
REV_AT_EPOCH   = 34936
BSTAR          = .19553E-3
MEAN_MOTION_DOT = .9119E-4
MEAN_MOTION_DDOT = 0

CCSDS_OMM_VERS = 2.0
CREATION_DATE  = 
ORIGINATOR     = 

OBJECT_NAME    = SL-3 R/B
OBJECT_ID      = 1983-075B
CENTER_NAME    = EARTH
REF_FRAME      = TEME
TIME_SYSTEM    = UTC
MEAN_ELEMENT_THEORY = SGP/SGP4

EPOCH          = 2026-01-13T02:41:59.656992
MEAN_MOTION    = 15.36896822
ECCENTRICITY   = .0024382
INCLINATION    = 97.6117
RA_OF_ASC_NODE = 15.6679
ARG_OF_PERICENTER = 70.3352
MEAN_ANOMALY   = 290.0519

EPHEMERIS_TYPE = 0
CLASSIFICATION_TYPE = U
NORAD_CAT_ID   = 14208
ELEMENT_SET_NO = 999
REV_AT_EPOCH   = 32161
BSTAR          = .22331E-3
MEAN_MOTION_DOT = .8048E-4
MEAN_MOTION_DDOT = 0

CCSDS_OMM_VERS = 2.0
CREATION_DATE  = 
ORIGINATOR     = 

OBJECT_NAME    = COSMOS 1536
OBJECT_ID      = 1984-013A
CENTER_NAME    = EARTH
REF_FRAME      = TEME
TIME_SYSTEM    = UTC
MEAN_ELEMENT_THEORY = SGP/SGP4

EPOCH          = 2026-01-13T03:38:17.477088
MEAN_MOTION    = 15.22990267
ECCENTRICITY   = .0015615
INCLINATION    = 82.5458
RA_OF_ASC_NODE = 163.0025
ARG_OF_PERICENTER = 116.1674
MEAN_ANOMALY   = 244.1171

EPHEMERIS_TYPE = 0
CLASSIFICATION_TYPE = U
NORAD_CAT_ID   = 14699
ELEMENT_SET_NO = 999
REV_AT_EPOCH   = 26416
BSTAR          = .22447E-3
MEAN_MOTION_DOT = .5325E-4
MEAN_MOTION_DDOT = 0

CCSDS_OMM_VERS = 2.0
CREATION_DATE  = 
ORIGINATOR     = 

OBJECT_NAME    = SL-14 R/B
OBJECT_ID      = 1984-027B
CENTER_NAME    = EARTH
REF_FRAME      = TEME
TIME_SYSTEM    = UTC
MEAN_ELEMENT_THEORY = SGP/SGP4

EPOCH          = 2026-01-13T01:42:38.913408
MEAN_MOTION    = 14.85913654
ECCENTRICITY   = .0018584
INCLINATION    = 82.5432
RA_OF_ASC_NODE = 297.1771
ARG_OF_PERICENTER = 153.0953
MEAN_ANOMALY   = 207.1232

EPHEMERIS_TYPE = 0
CLASSIFICATION_TYPE = U
NORAD_CAT_ID   = 14820
ELEMENT_SET_NO = 999
REV_AT_EPOCH   = 23937
BSTAR          = .43099E-4
MEAN_MOTION_DOT = .401E-5
MEAN_MOTION_DDOT = 0

CCSDS_OMM_VERS = 2.0
CREATION_DATE  = 
ORIGINATOR     = 

OBJECT_NAME    = SL-8 R/B
OBJECT_ID      = 1985-006B
CENTER_NAME    = EARTH
REF_FRAME      = TEME
TIME_SYSTEM    = UTC
MEAN_ELEMENT_THEORY = SGP/SGP4

EPOCH          = 2026-01-13T03:14:02.704128
MEAN_MOTION    = 14.37744967
ECCENTRICITY   = .0019751
INCLINATION    = 74.0463
RA_OF_ASC_NODE = 3.3686
ARG_OF_PERICENTER = 290.2869
MEAN_ANOMALY   = 140.7361

EPHEMERIS_TYPE = 0
CLASSIFICATION_TYPE = U
NORAD_CAT_ID   = 15483
ELEMENT_SET_NO = 999
REV_AT_EPOCH   = 14604
BSTAR          = .91655E-4
MEAN_MOTION_DOT = .25E-5
MEAN_MOTION_DDOT = 0

CCSDS_OMM_VERS = 2.0
CREATION_DATE  = 
ORIGINATOR     = 

OBJECT_NAME    = SL-12 R/B(2)
OBJECT_ID      = 1985-042D
CENTER_NAME    = EARTH
REF_FRAME      = TEME
TIME_SYSTEM    = UTC
MEAN_ELEMENT_THEORY = SGP/SGP4

EPOCH          = 2026-01-12T23:45:42.543936
MEAN_MOTION    = 14.21961888
ECCENTRICITY   = .0036501
INCLINATION    = 71.1063
RA_OF_ASC_NODE = 205.4009
ARG_OF_PERICENTER = 215.2614
MEAN_ANOMALY   = 257.4649

EPHEMERIS_TYPE = 0
CLASSIFICATION_TYPE = U
NORAD_CAT_ID   = 15772
ELEMENT_SET_NO = 999
REV_AT_EPOCH   = 10647
BSTAR          = .41129E-4
MEAN_MOTION_DOT = .44E-6
MEAN_MOTION_DDOT = 0

CCSDS_OMM_VERS = 2.0
CREATION_DATE  = 
ORIGINATOR     = 

OBJECT_NAME    = SL-14 R/B
OBJECT_ID      = 1985-069B
CENTER_NAME    = EARTH
REF_FRAME      = TEME
TIME_SYSTEM    = UTC
MEAN_ELEMENT_THEORY = SGP/SGP4

EPOCH          = 2026-01-13T03:22:00.560064
MEAN_MOTION    = 14.86363703
ECCENTRICITY   = .0019284
INCLINATION    = 82.5259
RA_OF_ASC_NODE = 77.1818
ARG_OF_PERICENTER = 21.0558
MEAN_ANOMALY   = 339.1448

EPHEMERIS_TYPE = 0
CLASSIFICATION_TYPE = U
NORAD_CAT_ID   = 15945
ELEMENT_SET_NO = 999
REV_AT_EPOCH   = 16458
BSTAR          = .37869E-4
MEAN_MOTION_DOT = .359E-5
MEAN_MOTION_DDOT = 0

CCSDS_OMM_VERS = 2.0
CREATION_DATE  = 
ORIGINATOR     = 

OBJECT_NAME    = SL-16 R/B
OBJECT_ID      = 1985-097B
CENTER_NAME    = EARTH
REF_FRAME      = TEME
TIME_SYSTEM    = UTC
MEAN_ELEMENT_THEORY = SGP/SGP4

EPOCH          = 2026-01-13T03:24:03.576384
MEAN_MOTION    = 14.16592315
ECCENTRICITY   = .0008566
INCLINATION    = 71.0023
RA_OF_ASC_NODE = 257.4952
ARG_OF_PERICENTER = 325.9473
MEAN_ANOMALY   = 145.6986

EPHEMERIS_TYPE = 0
CLASSIFICATION_TYPE = U
NORAD_CAT_ID   = 16182
ELEMENT_SET_NO = 999
REV_AT_EPOCH   = 7936
BSTAR          = .34905E-4
MEAN_MOTION_DOT = .22E-6
MEAN_MOTION_DDOT = 0

CCSDS_OMM_VERS = 2.0
CREATION_DATE  = 
ORIGINATOR     = 

OBJECT_NAME    = SL-14 R/B
OBJECT_ID      = 1986-006B
CENTER_NAME    = EARTH
REF_FRAME      = TEME
TIME_SYSTEM    = UTC
MEAN_ELEMENT_THEORY = SGP/SGP4

EPOCH          = 2026-01-13T01:32:34.323360
MEAN_MOTION    = 14.86719463
ECCENTRICITY   = .0078295
INCLINATION    = 82.5287
RA_OF_ASC_NODE = 312.0799
ARG_OF_PERICENTER = 96.9139
MEAN_ANOMALY   = 264.0992

EPHEMERIS_TYPE = 0
CLASSIFICATION_TYPE = U
NORAD_CAT_ID   = 16496
ELEMENT_SET_NO = 999
REV_AT_EPOCH   = 14094
BSTAR          = .58657E-4
MEAN_MOTION_DOT = .58E-5
MEAN_MOTION_DDOT = 0

CCSDS_OMM_VERS = 2.0
CREATION_DATE  = 
ORIGINATOR     = 

OBJECT_NAME    = COSMOS 1743
OBJECT_ID      = 1986-034A
CENTER_NAME    = EARTH
REF_FRAME      = TEME
TIME_SYSTEM    = UTC
MEAN_ELEMENT_THEORY = SGP/SGP4

EPOCH          = 2026-01-12T18:32:51.732672
MEAN_MOTION    = 15.54307571
ECCENTRICITY   = .00052335
INCLINATION    = 82.5350
RA_OF_ASC_NODE = 132.3104
ARG_OF_PERICENTER = 135.2748
MEAN_ANOMALY   = 224.8928

EPHEMERIS_TYPE = 0
CLASSIFICATION_TYPE = U
NORAD_CAT_ID   = 16719
ELEMENT_SET_NO = 999
REV_AT_EPOCH   = 17155
BSTAR          = .45558709E-3
MEAN_MOTION_DOT = .29889E-3
MEAN_MOTION_DDOT = 0

